[{"OBJECT_NAME":"CANX-4","OBJECT_ID":"2014-034C","EPOCH":"2026-03-09T13:49:15.377088","MEAN_MOTION":14.8106136,"ECCENTRICITY":0.0012356,"INCLINATION":98.3276,"RA_OF_ASC_NODE":300.1593,"ARG_OF_PERICENTER":336.897,"MEAN_ANOMALY":23.1684,"EPHEMERIS_TYPE":0,"CLASSIFICATION_TYPE":"U","NORAD_CAT_ID":40055,"ELEMENT_SET_NO":999,"REV_AT_EPOCH":62978,"BSTAR":0.00019272,"MEAN_MOTION_DOT":1.439e-5,"MEAN_MOTION_DDOT":0},{"OBJECT_NAME":"KUIPER-00116","OBJECT_ID":"2025-171X","EPOCH":"2026-03-09T11:48:57.908160","MEAN_MOTION":14.79934892,"ECCENTRICITY":6.493e-5,"INCLINATION":51.8999,"RA_OF_ASC_NODE":174.0015,"ARG_OF_PERICENTER":139.5027,"MEAN_ANOMALY":220.5984,"EPHEMERIS_TYPE":0,"CLASSIFICATION_TYPE":"U","NORAD_CAT_ID":65153,"ELEMENT_SET_NO":999,"REV_AT_EPOCH":3264,"BSTAR":0.00082750162,"MEAN_MOTION_DOT":6.093e-5,"MEAN_MOTION_DDOT":0}]
