CANX-4                  
1 40055U 14034C   26068.57587242  .00001439  00000+0  19272-3 0  9998
2 40055  98.3276 300.1593 0012356 336.8970  23.1684 14.81061360629781
KUIPER-00116            
1 65153U 25171X   26068.49233690  .00006093  00000+0  82750-3 0  9996
2 65153  51.8999 174.0015 0000649 139.5027 220.5984 14.79934892 32648
